#aV2019  5 25  0  0  0.00000000     288 DD+AD WGS84 FIT  NGA
## 2054 518400.00000000   300.00000000 58628 0.0000000000000
+   31     1  2  3  5  6  7  8  9 10 11 12 13 14 15 16 17 18
+         19 20 21 22 23 24 25 26 27 28 29 30 31 32  0  0  0
+          0  0  0  0  0  0  0  0  0  0  0  0  0  0  0  0  0
+          0  0  0  0  0  0  0  0  0  0  0  0  0  0  0  0  0
+          0  0  0  0  0  0  0  0  0  0  0  0  0  0  0  0  0
++         2  2  2  2  2  2  2  2  2  2  2  2  2  2  2  2  2
++         2  2  2  2  2  2  2  2  2  2  2  2  2  2  0  0  0
++         0  0  0  0  0  0  0  0  0  0  0  0  0  0  0  0  0
++         0  0  0  0  0  0  0  0  0  0  0  0  0  0  0  0  0
++         0  0  0  0  0  0  0  0  0  0  0  0  0  0  0  0  0
%c cc cc ccc ccc cccc cccc cccc cccc ccccc ccccc ccccc ccccc
%c cc cc ccc ccc cccc cccc cccc cccc ccccc ccccc ccccc ccccc
%f  0.0000000  0.000000000  0.00000000000  0.000000000000000
%f  0.0000000  0.000000000  0.00000000000  0.000000000000000
%i    0    0    0    0      0      0      0      0         0
%i    0    0    0    0      0      0      0      0         0
/*      NGA, ST. LOUIS,MO.                                  
/*   EPHEMERIS COMPUTED FROM 2 DAYS OF DATA                 
/*   EPOCHA v5 SMOOTHER                                     
/*   G1762 IERS2010 SATAF SATAPC                            
*  2019  5 25 11  5  0.00000000
P  1 -21669.214249 -14322.417089  -6500.404979    -24.606738                    
V  1   8038.980010   1409.202559 -30461.279021     -0.091528                    
P  2   2422.425083  16747.180313  21113.825645   -221.507901                    
V  2 -24160.547841  -7938.145345   9188.247058     -0.090924                    
P  3 -12594.013299 -17945.830169  15017.698527    187.358372                    
V  3   -244.092111 -19196.023563 -22997.628775     -0.007672                    
P  5   1989.517571  26249.875944   2425.411130      0.807019                    
V  5  -3770.805003  -2742.389484  31436.225348     -0.001279                    
P  6 -12098.941594  10465.910018  21250.787181    196.251224                    
V  6 -24420.530720 -11133.329201  -8403.274489     -0.102338                    
P  7 -25159.323032  -6148.235709  -6670.278247    -31.144677                    
V  7  -6917.046356  -5839.310524  29820.896708     -0.075675                    
P  8  -6328.119252 -13870.043442 -21699.798175   -144.869278                    
V  8  22198.305625 -16439.397611   4229.763699     -0.014349                    
P  9 -22253.868591   4794.109863  13653.629136    404.743266                    
V  9  12374.969255 -12490.131017  24473.077023     -0.072688                    
P 10  12013.076026 -13398.881708 -19403.270612     36.309411                    
V 10   4279.906293  24502.027774 -14416.685358     -0.111375                    
P 11 -19305.682212 -10931.149388 -14953.778983   -599.302528                    
V 11  18214.009625  -3811.869137 -21754.282129      0.081867                    
P 12  10321.465364  20006.196622  14014.606500    239.307820                    
V 12   -714.915182  18112.319009 -24779.135886     -0.034692                    
P 13  -3752.251675  17636.297493 -19595.588960    -62.120309                    
V 13 -22008.158694  11142.733070  14367.679123      0.017000                    
P 14  16764.224347 -18329.469899   9460.947132    -79.004551                    
V 14  11237.625923  -3949.769341 -28718.209438      0.016230                    
P 15   9288.562911  13166.512895 -21356.128230   -311.012077                    
V 15 -20120.466194  17508.769962   2461.758717      0.022026                    
P 16    183.927362 -26269.377074   1430.761920    -42.779323                    
V 16   2545.906031   1991.479370  32464.891826     -0.029697                    
P 17 -21560.091145  15397.453000   1395.272395     60.499002                    
V 17  -2244.463999  -1072.929116 -32259.485684      0.063459                    
P 18 -14982.129235 -16766.413005 -14732.829183     56.256994                    
V 18  17396.276173   4380.825461 -23335.437984      0.034002                    
P 19 -18508.583563  17237.227576   7930.030186   -314.781020                    
V 19  -9993.286530   3638.736533 -30010.934982      0.046076                    
P 20  15531.826937  -3490.268301 -21364.174911    524.953996                    
V 20   6366.659593  26249.149382    189.204008      0.002581                    
P 21  23968.264417    763.805492 -10451.966936   -186.040857                    
V 21  12583.378121   7911.521445  27524.191110      0.073777                    
P 22 -10907.249359 -22768.610612   8616.109855   -706.569683                    
V 22   1383.062895 -11109.231862 -28301.029321     -0.061369                    
P 23 -16022.430816  -6496.360527  20592.978642   -184.716742                    
V 23  19562.374981 -16169.481342   9884.761305      0.016380                    
P 24  20008.217462  14972.553786  -9624.012278    -66.543992                    
V 24 -12175.863169  -1502.907874 -27779.030760     -0.005755                    
P 25  14965.077721   7466.545781  20481.921509   -759.639360                    
V 25   2186.142150  26318.004902 -10830.485395     -0.036173                    
P 26   5294.088719 -23044.097993  11897.601747    210.209058                    
V 26   4852.483106  14688.976078  26419.655740      0.095971                    
P 27   5651.700008 -19012.891036 -17619.129079   -140.593811                    
V 27  18714.217027 -12099.263724  19469.231858     -0.096245                    
P 28 -12554.077578  12427.805172 -19262.935170    767.784755                    
V 28  -1745.591605 -25655.528687 -14859.391440     -0.000394                    
P 29  20440.071750    141.428320  16929.841420    193.073117                    
V 29 -17345.903891  12778.648365  20785.953264     -0.093572                    
P 30 -21164.084187   2640.108383 -15922.919850   -111.165256                    
V 30 -17264.638863 -10793.549919  20935.318091     -0.071801                    
P 31  11282.224979 -11202.556185  21333.494675     35.758858                    
V 31  24334.699927  11768.196051  -6253.673476     -0.026609                    
P 32  20051.301840 -17170.847278   2310.122792    -72.377347                    
V 32   4123.989735    694.868134 -31559.601100      0.166179                    
EOF
